start=new Date('2023-01-19T00:00:00.000Z').valueOf();
sats=[{"MEAN_MOTION_DDOT":"0.0000000000000","ARG_OF_PERICENTER":"106.2640","FILE":"3754172","RA_OF_ASC_NODE":"116.8831","EPHEMERIS_TYPE":"0","MEAN_MOTION_DOT":"0.00025119","MEAN_MOTION":"15.06417419","REF_FRAME":"TEME","DECAY_DATE":null,"TLE_LINE1":"1 47571U 21009Z   23018.54324796  .00025119  00000-0  16984-2 0  9998","OBJECT_ID":"2021-009Z","PERIOD":"95.591","SITE":"AFETR","MEAN_ANOMALY":"253.8483","TIME_SYSTEM":"UTC","ELEMENT_SET_NO":"999","INCLINATION":"53.0524","APOAPSIS":"548.004","PERIAPSIS":"546.317","OBJECT_TYPE":"PAYLOAD","CENTER_NAME":"EARTH","BSTAR":"0.00169840000000","LAUNCH_DATE":"2021-02-04","SEMIMAJOR_AXIS":"6925.295","EPOCH":"2023-01-18T13:02:16.623744","ECCENTRICITY":"0.00012180","MEAN_ELEMENT_THEORY":"SGP4","TLE_LINE2":"2 47571  53.0524 116.8831 0001218 106.2640 253.8483 15.06417419108789","NORAD_CAT_ID":"47571","OBJECT_NAME":"STARLINK-1970","COUNTRY_CODE":"US","GP_ID":"223430562","CLASSIFICATION_TYPE":"U","RCS_SIZE":"LARGE","REV_AT_EPOCH":"10878"},{"ELEMENT_SET_NO":"999","TIME_SYSTEM":"UTC","INCLINATION":"53.0530","BSTAR":"0.00121190000000","CENTER_NAME":"EARTH","OBJECT_TYPE":"PAYLOAD","PERIAPSIS":"546.788","APOAPSIS":"547.556","SEMIMAJOR_AXIS":"6925.307","EPOCH":"2023-01-18T12:35:44.018592","LAUNCH_DATE":"2021-02-04","COUNTRY_CODE":"US","REV_AT_EPOCH":"10878","CLASSIFICATION_TYPE":"U","GP_ID":"223430848","RCS_SIZE":"LARGE","MEAN_ELEMENT_THEORY":"SGP4","TLE_LINE2":"2 47572  53.0530 116.9573 0000555 131.4937 228.6100 15.06413513108780","ECCENTRICITY":"0.00005550","OBJECT_NAME":"STARLINK-1971","NORAD_CAT_ID":"47572","FILE":"3754173","ARG_OF_PERICENTER":"131.4937","MEAN_MOTION_DDOT":"0.0000000000000","MEAN_MOTION_DOT":"0.00017822","RA_OF_ASC_NODE":"116.9573","EPHEMERIS_TYPE":"0","OBJECT_ID":"2021-009AA","DECAY_DATE":null,"REF_FRAME":"TEME","MEAN_MOTION":"15.06413513","TLE_LINE1":"1 47572U 21009AA  23018.52481503  .00017822  00000-0  12119-2 0  9995","SITE":"AFETR","MEAN_ANOMALY":"228.6100","PERIOD":"95.591"},{"MEAN_MOTION_DOT":"0.00035024","EPHEMERIS_TYPE":"0","RA_OF_ASC_NODE":"116.7467","ARG_OF_PERICENTER":"85.5144","FILE":"3754173","MEAN_MOTION_DDOT":"0.0000000000000","MEAN_ANOMALY":"274.5976","SITE":"AFETR","PERIOD":"95.590","OBJECT_ID":"2021-009AB","TLE_LINE1":"1 47573U 21009AB  23018.56904688  .00035024  00000-0  23562-2 0  9992","MEAN_MOTION":"15.06437063","REF_FRAME":"TEME","DECAY_DATE":null,"OBJECT_TYPE":"PAYLOAD","CENTER_NAME":"EARTH","PERIAPSIS":"546.306","BSTAR":"0.00235620000000","APOAPSIS":"547.894","INCLINATION":"53.0540","TIME_SYSTEM":"UTC","ELEMENT_SET_NO":"999","CLASSIFICATION_TYPE":"U","GP_ID":"223430569","RCS_SIZE":"LARGE","REV_AT_EPOCH":"10878","COUNTRY_CODE":"US","NORAD_CAT_ID":"47573","OBJECT_NAME":"STARLINK-1975","ECCENTRICITY":"0.00011460","TLE_LINE2":"2 47573  53.0540 116.7467 0001146  85.5144 274.5976 15.06437063108785","MEAN_ELEMENT_THEORY":"SGP4","SEMIMAJOR_AXIS":"6925.235","EPOCH":"2023-01-18T13:39:25.650432","LAUNCH_DATE":"2021-02-04"},{"ARG_OF_PERICENTER":"85.4255","FILE":"3754254","MEAN_MOTION_DDOT":"0.0000000000000","MEAN_MOTION_DOT":"0.00000169","RA_OF_ASC_NODE":"146.3954","EPHEMERIS_TYPE":"0","OBJECT_ID":"2021-009AC","TLE_LINE1":"1 47574U 21009AC  23018.65104202  .00000169  00000-0  30207-4 0  9995","MEAN_MOTION":"15.06422337","REF_FRAME":"TEME","DECAY_DATE":null,"MEAN_ANOMALY":"274.6865","SITE":"AFETR","PERIOD":"95.591","INCLINATION":"53.0552","TIME_SYSTEM":"UTC","ELEMENT_SET_NO":"999","PERIAPSIS":"546.353","OBJECT_TYPE":"PAYLOAD","CENTER_NAME":"EARTH","BSTAR":"0.00003020700000","APOAPSIS":"547.937","SEMIMAJOR_AXIS":"6925.280","EPOCH":"2023-01-18T15:37:30.030528","LAUNCH_DATE":"2021-02-04","RCS_SIZE":"LARGE","GP_ID":"223453306","CLASSIFICATION_TYPE":"U","REV_AT_EPOCH":"10777","COUNTRY_CODE":"US","NORAD_CAT_ID":"47574","OBJECT_NAME":"STARLINK-1976","ECCENTRICITY":"0.00011440","TLE_LINE2":"2 47574  53.0552 146.3954 0001144  85.4255 274.6865 15.06422337107773","MEAN_ELEMENT_THEORY":"SGP4"},{"ARG_OF_PERICENTER":"83.7960","FILE":"3754254","MEAN_MOTION_DDOT":"0.0000000000000","MEAN_MOTION_DOT":"0.00007923","RA_OF_ASC_NODE":"146.1466","EPHEMERIS_TYPE":"0","OBJECT_ID":"2021-009AD","TLE_LINE1":"1 47575U 21009AD  23018.70633685  .00007923  00000-0  54989-3 0  9991","MEAN_MOTION":"15.06419313","REF_FRAME":"TEME","DECAY_DATE":null,"MEAN_ANOMALY":"276.3144","SITE":"AFETR","PERIOD":"95.591","INCLINATION":"53.0522","TIME_SYSTEM":"UTC","ELEMENT_SET_NO":"999","OBJECT_TYPE":"PAYLOAD","PERIAPSIS":"546.454","CENTER_NAME":"EARTH","BSTAR":"0.00054989000000","APOAPSIS":"547.855","EPOCH":"2023-01-18T16:57:07.503840","SEMIMAJOR_AXIS":"6925.289","LAUNCH_DATE":"2021-02-04","CLASSIFICATION_TYPE":"U","GP_ID":"223454558","RCS_SIZE":"LARGE","REV_AT_EPOCH":"10778","COUNTRY_CODE":"US","OBJECT_NAME":"STARLINK-1977","NORAD_CAT_ID":"47575","ECCENTRICITY":"0.00010110","MEAN_ELEMENT_THEORY":"SGP4","TLE_LINE2":"2 47575  53.0522 146.1466 0001011  83.7960 276.3144 15.06419313107784"},{"MEAN_ANOMALY":"254.3575","SITE":"AFETR","PERIOD":"95.592","OBJECT_ID":"2021-009AE","TLE_LINE1":"1 47576U 21009AE  23018.40778616  .00004745  00000-0  33720-3 0  9992","DECAY_DATE":null,"REF_FRAME":"TEME","MEAN_MOTION":"15.06404902","MEAN_MOTION_DOT":"0.00004745","RA_OF_ASC_NODE":"107.4919","EPHEMERIS_TYPE":"0","FILE":"3754173","ARG_OF_PERICENTER":"105.7558","MEAN_MOTION_DDOT":"0.0000000000000","REV_AT_EPOCH":"10891","CLASSIFICATION_TYPE":"U","GP_ID":"223430571","RCS_SIZE":"LARGE","COUNTRY_CODE":"US","OBJECT_NAME":"STARLINK-1978","NORAD_CAT_ID":"47576","TLE_LINE2":"2 47576  53.0519 107.4919 0001313 105.7558 254.3575 15.06404902108915","MEAN_ELEMENT_THEORY":"SGP4","ECCENTRICITY":"0.00013130","SEMIMAJOR_AXIS":"6925.334","EPOCH":"2023-01-18T09:47:12.724224","LAUNCH_DATE":"2021-02-04","BSTAR":"0.00033720000000","OBJECT_TYPE":"PAYLOAD","CENTER_NAME":"EARTH","PERIAPSIS":"546.289","APOAPSIS":"548.108","INCLINATION":"53.0519","ELEMENT_SET_NO":"999","TIME_SYSTEM":"UTC"},{"EPHEMERIS_TYPE":"0","RA_OF_ASC_NODE":"121.7122","MEAN_MOTION_DOT":"0.00005094","MEAN_MOTION_DDOT":"0.0000000000000","FILE":"3753951","ARG_OF_PERICENTER":"81.3706","PERIOD":"95.592","SITE":"AFETR","MEAN_ANOMALY":"278.7375","REF_FRAME":"TEME","DECAY_DATE":null,"MEAN_MOTION":"15.06409269","TLE_LINE1":"1 47577U 21009AF  23018.58148176  .00005094  00000-0  36055-3 0  9996","OBJECT_ID":"2021-009AF","APOAPSIS":"547.746","BSTAR":"0.00036055000000","OBJECT_TYPE":"PAYLOAD","CENTER_NAME":"EARTH","PERIAPSIS":"546.624","ELEMENT_SET_NO":"999","TIME_SYSTEM":"UTC","INCLINATION":"53.0533","TLE_LINE2":"2 47577  53.0533 121.7122 0000810  81.3706 278.7375 15.06409269108124","MEAN_ELEMENT_THEORY":"SGP4","ECCENTRICITY":"0.00008100","NORAD_CAT_ID":"47577","OBJECT_NAME":"STARLINK-1979","COUNTRY_CODE":"US","REV_AT_EPOCH":"10812","GP_ID":"223420384","RCS_SIZE":"LARGE","CLASSIFICATION_TYPE":"U","LAUNCH_DATE":"2021-02-04","SEMIMAJOR_AXIS":"6925.320","EPOCH":"2023-01-18T13:57:20.024064"},{"COUNTRY_CODE":"US","REV_AT_EPOCH":"10804","GP_ID":"223421635","CLASSIFICATION_TYPE":"U","RCS_SIZE":"LARGE","TLE_LINE2":"2 47578  53.0519 126.7367 0000869  89.7039 270.4049 15.06414876108048","MEAN_ELEMENT_THEORY":"SGP4","ECCENTRICITY":"0.00008690","NORAD_CAT_ID":"47578","OBJECT_NAME":"STARLINK-1980","SEMIMAJOR_AXIS":"6925.303","EPOCH":"2023-01-18T13:48:42.535584","LAUNCH_DATE":"2021-02-04","BSTAR":"0.00057930000000","OBJECT_TYPE":"PAYLOAD","PERIAPSIS":"546.566","CENTER_NAME":"EARTH","APOAPSIS":"547.770","ELEMENT_SET_NO":"999","TIME_SYSTEM":"UTC","INCLINATION":"53.0519","SITE":"AFETR","MEAN_ANOMALY":"270.4049","PERIOD":"95.591","OBJECT_ID":"2021-009AG","REF_FRAME":"TEME","DECAY_DATE":null,"MEAN_MOTION":"15.06414876","TLE_LINE1":"1 47578U 21009AG  23018.57549231  .00008361  00000-0  57930-3 0  9998","MEAN_MOTION_DOT":"0.00008361","EPHEMERIS_TYPE":"0","RA_OF_ASC_NODE":"126.7367","FILE":"3753951","ARG_OF_PERICENTER":"89.7039","MEAN_MOTION_DDOT":"0.0000000000000"},{"SEMIMAJOR_AXIS":"6925.255","EPOCH":"2023-01-18T13:23:30.090624","LAUNCH_DATE":"2021-02-04","REV_AT_EPOCH":"10878","CLASSIFICATION_TYPE":"U","GP_ID":"223430847","RCS_SIZE":"LARGE","COUNTRY_CODE":"US","OBJECT_NAME":"STARLINK-1981","NORAD_CAT_ID":"47579","MEAN_ELEMENT_THEORY":"SGP4","TLE_LINE2":"2 47579  53.0509 116.8142 0001545  77.6596 282.4565 15.06430568108788","ECCENTRICITY":"0.00015450","INCLINATION":"53.0509","ELEMENT_SET_NO":"999","TIME_SYSTEM":"UTC","BSTAR":"0.00167090000000","OBJECT_TYPE":"PAYLOAD","CENTER_NAME":"EARTH","PERIAPSIS":"546.050","APOAPSIS":"548.190","OBJECT_ID":"2021-009AH","TLE_LINE1":"1 47579U 21009AH  23018.55798716  .00024715  00000-0  16709-2 0  9990","DECAY_DATE":null,"REF_FRAME":"TEME","MEAN_MOTION":"15.06430568","MEAN_ANOMALY":"282.4565","SITE":"AFETR","PERIOD":"95.590","FILE":"3754173","ARG_OF_PERICENTER":"77.6596","MEAN_MOTION_DDOT":"0.0000000000000","MEAN_MOTION_DOT":"0.00024715","EPHEMERIS_TYPE":"0","RA_OF_ASC_NODE":"116.8142"},{"SEMIMAJOR_AXIS":"6925.215","EPOCH":"2023-01-18T15:29:32.083872","LAUNCH_DATE":"2021-02-04","REV_AT_EPOCH":"10805","GP_ID":"223454809","CLASSIFICATION_TYPE":"U","RCS_SIZE":"LARGE","COUNTRY_CODE":"US","NORAD_CAT_ID":"47580","OBJECT_NAME":"STARLINK-1982","TLE_LINE2":"2 47580  53.0541 126.4031 0001487  70.8459 289.2690 15.06443472108050","MEAN_ELEMENT_THEORY":"SGP4","ECCENTRICITY":"0.00014870","INCLINATION":"53.0541","ELEMENT_SET_NO":"999","TIME_SYSTEM":"UTC","BSTAR":"0.00133970000000","CENTER_NAME":"EARTH","OBJECT_TYPE":"PAYLOAD","PERIAPSIS":"546.051","APOAPSIS":"548.110","OBJECT_ID":"2021-009AJ","TLE_LINE1":"1 47580U 21009AJ  23018.64551023  .00019753  00000-0  13397-2 0  9996","REF_FRAME":"TEME","DECAY_DATE":null,"MEAN_MOTION":"15.06443472","MEAN_ANOMALY":"289.2690","SITE":"AFETR","PERIOD":"95.589","FILE":"3754254","ARG_OF_PERICENTER":"70.8459","MEAN_MOTION_DDOT":"0.0000000000000","MEAN_MOTION_DOT":"0.00019753","RA_OF_ASC_NODE":"126.4031","EPHEMERIS_TYPE":"0"}];
